GSAT0208 (GALILEO 11)
1 41175U 15079B   25354.35088306 -.00000002  00000+0  00000+0 0  9993
2 41175  55.7157 106.1693 0001807 359.1842   0.7815  1.70474393 62146